NORAD_CAT_ID,OBJECT_NAME,OBJECT_TYPE,EPOCH,MEAN_MOTION,ECCENTRICITY,INCLINATION,RA_OF_ASC_NODE,ARG_OF_PERICENTER,MEAN_ANOMALY,BSTAR,MEAN_MOTION_DOT,MEAN_MOTION_DDOT,TLE_LINE0,TLE_LINE1,TLE_LINE2,SEMIMAJOR_AXIS,PERIOD,APOGEE,PERIGEE,DECAYED
51957.0,STARLINK-3694,PAYLOAD,2024-05-29 19:08:39,15.04767706,0.0001211,53.0558,68.1668,89.9842,270.1285,7.0922e-05,7.34e-06,0.0,0 STARLINK-3694,1 51957U 22025B   24150.79767580  .00000734  00000-0  70922-4 0  9997,2 51957  53.0558  68.1668 0001211  89.9842 270.1285 15.04767706124167,6930.356,95.696,553.06,551.382,0.0
51957.0,STARLINK-3694,PAYLOAD,2024-05-29 22:19:56,15.04758806,0.0001242,53.0557,67.5717,93.7958,266.3173,0.00023823,3.12e-05,0.0,0 STARLINK-3694,1 51957U 22025B   24150.93051522  .00003120  00000-0  23823-3 0  9994,2 51957  53.0557  67.5717 0001242  93.7958 266.3173 15.04758806123072,6930.383,95.696,553.109,551.387,0.0
51957.0,STARLINK-3694,PAYLOAD,2024-05-29 23:55:34,15.04772885,0.0001236,53.0562,67.2775,98.8086,261.3043,1.0653e-05,-1.25e-06,0.0,0 STARLINK-3694,1 51957U 22025B   24150.99693062 -.00000125  00000-0  10653-4 0  9992,2 51957  53.0562  67.2775 0001236  98.8086 261.3043 15.04772885123085,6930.34,95.696,553.062,551.348,0.0
51957.0,STARLINK-3694,PAYLOAD,2024-05-30 22:14:34,15.04775471,0.0001459,53.0568,63.1157,99.9467,260.1686,0.00014769,1.829e-05,0.0,0 STARLINK-3694,1 51957U 22025B   24151.92678850  .00001829  00000-0  14769-3 0  9996,2 51957  53.0568  63.1157 0001459  99.9467 260.1686 15.04775471123222,6930.332,95.695,553.208,551.186,0.0
51957.0,STARLINK-3694,PAYLOAD,2024-05-31 04:37:08,15.04782424,0.0001442,53.0567,61.9241,97.5272,262.5881,0.00021555,2.798e-05,0.0,0 STARLINK-3694,1 51957U 22025B   24152.19245744  .00002798  00000-0  21555-3 0  9995,2 51957  53.0567  61.9241 0001442  97.5272 262.5881 15.04782424124377,6930.311,95.695,553.175,551.176,0.0
51957.0,STARLINK-3694,PAYLOAD,2024-05-31 17:22:15,15.04792932,3.06e-05,53.055,59.5465,102.9627,257.1395,0.00043055,5.87e-05,0.0,0 STARLINK-3694,1 51957U 22025B   24152.72379527  .00005870  00000-0  43055-3 0  9994,2 51957  53.0550  59.5465 0000306 102.9627 257.1395 15.04792932124457,6930.278,95.694,552.355,551.931,0.0
51957.0,STARLINK-3694,PAYLOAD,2024-05-31 22:09:13,15.04767025,0.0001565,53.0555,58.6553,41.0616,319.049,-5.0303e-06,-3.49e-06,0.0,0 STARLINK-3694,1 51957U 22025B   24152.92306728 -.00000349  00000-0 -50303-5 0  9993,2 51957  53.0555  58.6553 0001565  41.0616 319.0490 15.04767025123378,6930.358,95.696,553.308,551.138,0.0
51957.0,STARLINK-3694,PAYLOAD,2024-06-01 01:20:30,15.04764503,0.000142,53.056,58.0605,80.8579,279.257,-0.00011729,-1.948e-05,0.0,0 STARLINK-3694,1 51957U 22025B   24153.05590494 -.00001948  00000-0 -11729-3 0  9996,2 51957  53.0560  58.0605 0001420  80.8579 279.2570 15.04764503124505,6930.366,95.696,553.215,551.247,0.0
51957.0,STARLINK-3694,PAYLOAD,2024-06-01 10:54:22,15.04758144,0.0001483,53.0563,56.276,81.3744,278.7413,-0.00018569,-2.922e-05,0.0,0 STARLINK-3694,1 51957U 22025B   24153.45442228 -.00002922  00000-0 -18569-3 0  9993,2 51957  53.0563  56.2760 0001483  81.3744 278.7413 15.04758144123456,6930.385,95.696,553.278,551.222,0.0
51957.0,STARLINK-3694,PAYLOAD,2024-06-01 17:16:56,15.04756611,0.0001459,53.0559,55.0852,81.8891,278.2263,-0.00019833,-3.102e-05,0.0,0 STARLINK-3694,1 51957U 22025B   24153.72009931 -.00003102  00000-0 -19833-3 0  9999,2 51957  53.0559  55.0852 0001459  81.8891 278.2263 15.04756611124604,6930.39,95.697,553.266,551.244,0.0
51957.0,STARLINK-3694,PAYLOAD,2024-06-02 10:49:00,15.04766328,0.0001353,53.0554,51.8136,84.3885,275.7258,0.00012118,1.451e-05,0.0,0 STARLINK-3694,1 51957U 22025B   24154.45070366  .00001451  00000-0  12118-3 0  9992,2 51957  53.0554  51.8136 0001353  84.3885 275.7258 15.04766328124716,6930.36,95.696,553.163,551.287,0.0
51957.0,STARLINK-3694,PAYLOAD,2024-06-02 23:34:09,15.04773326,6.34e-05,53.0572,49.4329,104.4413,255.6646,0.00035514,4.79e-05,0.0,0 STARLINK-3694,1 51957U 22025B   24154.98205023  .00004790  00000-0  35514-3 0  9994,2 51957  53.0572  49.4329 0000634 104.4413 255.6646 15.04773326123684,6930.339,95.695,552.643,551.764,0.0
51957.0,STARLINK-3694,PAYLOAD,2024-06-04 02:40:05,15.04765235,0.000147,53.0555,44.3772,90.103,270.0126,0.00015982,2.002e-05,0.0,0 STARLINK-3694,1 51957U 22025B   24156.11117907  .00002002  00000-0  15982-3 0  9995,2 51957  53.0555  44.3772 0001470  90.1030 270.0126 15.04765235124962,6930.363,95.696,553.247,551.21,0.0
51957.0,STARLINK-3694,PAYLOAD,2024-06-04 09:02:40,15.04764212,0.0001657,53.0578,43.1882,92.7618,267.356,9.7946e-05,1.119e-05,0.0,0 STARLINK-3694,1 51957U 22025B   24156.37685571  .00001119  00000-0  97946-4 0  9999,2 51957  53.0578  43.1882 0001657  92.7618 267.3560 15.04764212123899,6930.367,95.696,553.38,551.083,0.0
51957.0,STARLINK-3694,PAYLOAD,2024-06-04 23:23:26,15.04772159,0.0001401,53.0568,40.5104,83.0064,277.1083,2.9083e-05,1.38e-06,0.0,0 STARLINK-3694,1 51957U 22025B   24156.97461772  .00000138  00000-0  29083-4 0  9997,2 51957  53.0568  40.5104 0001401  83.0064 277.1083 15.04772159123989,6930.342,95.696,553.178,551.236,0.0
51957.0,STARLINK-3694,PAYLOAD,2024-06-05 08:57:18,15.0476734,0.0001335,53.0525,38.7266,86.8933,273.2208,0.00013829,1.695e-05,0.0,0 STARLINK-3694,1 51957U 22025B   24157.37313498  .00001695  00000-0  13829-3 0  9992,2 51957  53.0525  38.7266 0001335  86.8933 273.2208 15.04767340125155,6930.357,95.696,553.147,551.297,0.0
51957.0,STARLINK-3694,PAYLOAD,2024-06-05 16:55:32,15.04757418,0.0001454,53.0539,37.2393,92.2213,267.8942,6.4409e-06,-1.85e-06,0.0,0 STARLINK-3694,1 51957U 22025B   24157.70523696 -.00000185  00000-0  64409-5 0  9998,2 51957  53.0539  37.2393 0001454  92.2213 267.8942 15.04757418125204,6930.387,95.696,553.26,551.245,0.0
51957.0,STARLINK-3694,PAYLOAD,2024-06-06 08:51:57,15.04772068,0.000102,53.0532,34.2649,89.6569,270.4536,0.00019559,2.513e-05,0.0,0 STARLINK-3694,1 51957U 22025B   24158.36941783  .00002513  00000-0  19559-3 0  9992,2 51957  53.0532  34.2649 0001020  89.6569 270.4536 15.04772068125309,6930.342,95.696,552.914,551.501,0.0
51957.0,STARLINK-3694,PAYLOAD,2024-06-07 08:46:37,15.04760814,0.0001721,53.0556,29.8035,87.525,272.5936,0.00011172,1.315e-05,0.0,0 STARLINK-3694,1 51957U 22025B   24159.36571028  .00001315  00000-0  11172-3 0  9996,2 51957  53.0556  29.8035 0001721  87.5250 272.5936 15.04760814125455,6930.377,95.696,553.435,551.049,0.0
51957.0,STARLINK-3694,PAYLOAD,2024-06-07 15:09:12,15.0475055,0.0001367,53.0553,28.6139,92.2791,267.8354,0.00050955,6.991e-05,0.0,0 STARLINK-3694,1 51957U 22025B   24159.63139171  .00006991  00000-0  50955-3 0  9992,2 51957  53.0553  28.6139 0001367  92.2791 267.8354 15.04750550124381,6930.409,95.697,553.221,551.326,0.0
51957.0,STARLINK-3694,PAYLOAD,2024-06-07 21:31:46,15.04763096,0.0001237,53.0529,27.4242,92.1847,267.9283,0.00041839,5.691e-05,0.0,0 STARLINK-3694,1 51957U 22025B   24159.89706033  .00005691  00000-0  41839-3 0  9994,2 51957  53.0529  27.4242 0001237  92.1847 267.9283 15.04763096124429,6930.37,95.696,553.092,551.378,0.0
51957.0,STARLINK-3694,PAYLOAD,2024-06-08 15:03:49,15.04772174,0.0001641,53.0548,24.1524,93.5912,266.5264,0.00018846,2.411e-05,0.0,0 STARLINK-3694,1 51957U 22025B   24160.62766046  .00002411  00000-0  18846-3 0  9996,2 51957  53.0548  24.1524 0001641  93.5912 266.5264 15.04772174124537,6930.342,95.696,553.344,551.07,0.0
51957.0,STARLINK-3694,PAYLOAD,2024-06-08 21:26:24,15.04774204,0.0001497,53.0557,22.9627,101.5683,258.5473,0.00023995,3.146e-05,0.0,0 STARLINK-3694,1 51957U 22025B   24160.89333337  .00003146  00000-0  23995-3 0  9995,2 51957  53.0557  22.9627 0001497 101.5683 258.5473 15.04774204125687,6930.336,95.695,553.238,551.163,0.0
51957.0,STARLINK-3694,PAYLOAD,2024-06-09 06:59:58,15.05060096,0.0003031,53.0565,21.1767,188.3347,171.7592,0.0043035,0.00062102,0.0,0 STARLINK-3694,1 51957U 22025B   24161.29165240  .00062102  00000-0  43035-2 0  9999,2 51957  53.0565  21.1767 0003031 188.3347 171.7592 15.05060096125741,6929.458,95.677,553.424,549.223,0.0
51957.0,STARLINK-3694,PAYLOAD,2024-06-09 14:58:24,15.04760476,0.0001663,53.0558,19.6908,109.7502,250.3665,-0.00066167,-9.695e-05,0.0,0 STARLINK-3694,1 51957U 22025B   24161.62389240 -.00009695  00000-0 -66167-3 0  9996,2 51957  53.0558  19.6908 0001663 109.7502 250.3665 15.04760476124686,6930.378,95.696,553.396,551.091,0.0
51957.0,STARLINK-3694,PAYLOAD,2024-06-09 21:21:03,15.047684,0.0001423,53.0543,18.503,89.0038,271.1113,7.1735e-05,7.46e-06,0.0,0 STARLINK-3694,1 51957U 22025B   24161.88961914  .00000746  00000-0  71735-4 0  9992,2 51957  53.0543  18.5030 0001423  89.0038 271.1113 15.04768400125834,6930.354,95.696,553.205,551.233,0.0
51957.0,STARLINK-3694,PAYLOAD,2024-06-10 06:54:54,15.04767916,9.51e-05,53.054,16.7187,80.8732,279.2364,-8.3348e-05,-1.465e-05,0.0,0 STARLINK-3694,1 51957U 22025B   24162.28813078 -.00001465  00000-0 -83348-4 0  9998,2 51957  53.0540  16.7187 0000951  80.8732 279.2364 15.04767916124780,6930.355,95.696,552.879,551.561,0.0
51957.0,STARLINK-3694,PAYLOAD,2024-06-10 22:51:19,15.04777604,0.0001344,53.0564,13.7447,95.0767,265.0375,9.7195e-05,1.109e-05,0.0,0 STARLINK-3694,1 51957U 22025B   24162.95231451  .00001109  00000-0  97195-4 0  9999,2 51957  53.0564  13.7447 0001344  95.0767 265.0375 15.04777604124886,6930.325,95.695,553.122,551.259,0.0
51957.0,STARLINK-3694,PAYLOAD,2024-06-11 00:26:58,15.0477639,0.0001398,53.0554,13.4468,92.4312,267.6837,0.00014312,1.764e-05,0.0,0 STARLINK-3694,1 51957U 22025B   24163.01873349  .00001764  00000-0  14312-3 0  9991,2 51957  53.0554  13.4468 0001398  92.4312 267.6837 15.04776390126009,6930.329,95.695,553.163,551.225,0.0
51957.0,STARLINK-3694,PAYLOAD,2024-06-11 06:49:32,15.04775031,0.0001543,53.0549,12.2557,62.6402,297.4743,7.5806e-05,8.04e-06,0.0,0 STARLINK-3694,1 51957U 22025B   24163.28440859  .00000804  00000-0  75806-4 0  9996,2 51957  53.0549  12.2557 0001543  62.6402 297.4743 15.04775031124938,6930.333,95.695,553.268,551.129,0.0
